NORAD_CAT_ID,OBJECT_NAME,OBJECT_TYPE,EPOCH,MEAN_MOTION,ECCENTRICITY,INCLINATION,RA_OF_ASC_NODE,ARG_OF_PERICENTER,MEAN_ANOMALY,BSTAR,MEAN_MOTION_DOT,MEAN_MOTION_DDOT,TLE_LINE0,TLE_LINE1,TLE_LINE2,SEMIMAJOR_AXIS,PERIOD,APOGEE,PERIGEE,DECAYED
55959.0,STARLINK-5929,PAYLOAD,2024-05-27 21:56:50,14.98334214,0.0002735,69.9993,105.2811,270.454,89.6306,8.3109e-05,8.99e-06,0.0,0 STARLINK-5929,1 55959U 23037AX  24148.91447530  .00000899  00000-0  83109-4 0  9991,2 55959  69.9993 105.2811 0002735 270.4540  89.6306 14.98334214 66998,6950.18,96.107,573.946,570.144,0.0
55959.0,STARLINK-5929,PAYLOAD,2024-05-28 04:21:22,14.98334027,0.0002772,69.9993,104.6078,269.3722,90.712,6.161e-05,6.42e-06,0.0,0 STARLINK-5929,1 55959U 23037AX  24149.18151480  .00000642  00000-0  61610-4 0  9996,2 55959  69.9993 104.6078 0002772 269.3722  90.7120 14.98334027 67378,6950.18,96.107,573.972,570.119,0.0
55959.0,STARLINK-5929,PAYLOAD,2024-05-28 07:33:38,14.98334908,0.0002777,69.9993,104.2712,269.9212,90.1628,6.4165e-05,6.73e-06,0.0,0 STARLINK-5929,1 55959U 23037AX  24149.31503362  .00000673  00000-0  64165-4 0  9993,2 55959  69.9993 104.2712 0002777 269.9212  90.1628 14.98334908 67054,6950.178,96.107,573.973,570.113,0.0
55959.0,STARLINK-5929,PAYLOAD,2024-05-28 21:58:51,14.9833119,0.0002721,69.9996,102.7566,265.6362,94.4486,6.5512e-05,6.89e-06,0.0,0 STARLINK-5929,1 55959U 23037AX  24149.91587432  .00000689  00000-0  65512-4 0  9993,2 55959  69.9996 102.7566 0002721 265.6362  94.4486 14.98331190 67144,6950.189,96.107,573.945,570.163,0.0
55959.0,STARLINK-5929,PAYLOAD,2024-05-29 04:23:23,14.98331193,0.0002722,69.9996,102.0835,265.4633,94.6215,5.6741e-05,5.84e-06,0.0,0 STARLINK-5929,1 55959U 23037AX  24150.18291413  .00000584  00000-0  56741-4 0  9993,2 55959  69.9996 102.0835 0002722 265.4633  94.6215 14.98331193 67523,6950.189,96.107,573.946,570.162,0.0
55959.0,STARLINK-5929,PAYLOAD,2024-05-29 07:35:39,14.98331411,0.0002722,69.9997,101.7468,265.6082,94.4766,5.4661e-05,5.59e-06,0.0,0 STARLINK-5929,1 55959U 23037AX  24150.31643382  .00000559  00000-0  54661-4 0  9995,2 55959  69.9997 101.7468 0002722 265.6082  94.4766 14.98331411 67209,6950.189,96.107,573.945,570.162,0.0
55959.0,STARLINK-5929,PAYLOAD,2024-05-29 22:00:52,14.98335002,0.0002755,69.9997,100.2321,264.305,95.7795,8.8639e-05,9.65e-06,0.0,0 STARLINK-5929,1 55959U 23037AX  24150.91727045  .00000965  00000-0  88639-4 0  9993,2 55959  69.9997 100.2321 0002755 264.3050  95.7795 14.98335002 67293,6950.177,96.107,573.957,570.128,0.0
55959.0,STARLINK-5929,PAYLOAD,2024-05-30 04:25:24,14.98336431,0.0002732,69.9997,99.5588,262.1642,97.9207,0.00010077,1.11e-05,0.0,0 STARLINK-5929,1 55959U 23037AX  24151.18430842  .00001110  00000-0  10077-3 0  9992,2 55959  69.9997  99.5588 0002732 262.1642  97.9207 14.98336431 67677,6950.173,96.107,573.937,570.139,0.0
55959.0,STARLINK-5929,PAYLOAD,2024-05-30 06:01:32,14.98337304,0.0002784,69.9996,99.3895,271.2565,88.8275,0.00011617,1.294e-05,0.0,0 STARLINK-5929,1 55959U 23037AX  24151.25106848  .00001294  00000-0  11617-3 0  9990,2 55959  69.9996  99.3895 0002784 271.2565  88.8275 14.98337304 67345,6950.17,96.107,573.97,570.1,0.0
55959.0,STARLINK-5929,PAYLOAD,2024-05-30 22:02:53,14.98331398,0.0002742,69.9997,97.7062,267.9591,92.1254,6.7279e-05,7.1e-06,0.0,0 STARLINK-5929,1 55959U 23037AX  24151.91867199  .00000710  00000-0  67279-4 0  9994,2 55959  69.9997  97.7062 0002742 267.9591  92.1254 14.98331398 67442,6950.189,96.107,573.959,570.148,0.0
55959.0,STARLINK-5929,PAYLOAD,2024-05-31 04:27:25,14.98330314,0.0002751,69.9997,97.0331,267.0332,93.0512,4.4239e-05,4.35e-06,0.0,0 STARLINK-5929,1 55959U 23037AX  24152.18571281  .00000435  00000-0  44239-4 0  9993,2 55959  69.9997  97.0331 0002751 267.0332  93.0512 14.98330314 67824,6950.192,96.107,573.969,570.145,0.0
55959.0,STARLINK-5929,PAYLOAD,2024-05-31 06:03:33,14.98327678,0.0002717,69.9998,96.8645,268.5913,91.4935,0.00012238,1.367e-05,0.0,0 STARLINK-5929,1 55959U 23037AX  24152.25247267  .00001367  00000-0  12238-3 0  9993,2 55959  69.9998  96.8645 0002717 268.5913  91.4935 14.98327678 67496,6950.2,96.107,573.953,570.177,0.0
55959.0,STARLINK-5929,PAYLOAD,2024-05-31 22:04:54,14.98331948,0.0002932,69.9993,95.1808,269.5139,90.5684,4.649e-05,4.62e-06,0.0,0 STARLINK-5929,1 55959U 23037AX  24152.92007021  .00000462  00000-0  46490-4 0  9992,2 55959  69.9993  95.1808 0002932 269.5139  90.5684 14.98331948 67591,6950.187,96.107,574.09,570.014,0.0
55959.0,STARLINK-5929,PAYLOAD,2024-06-01 04:29:26,14.98334982,0.0002953,69.9993,94.5081,270.1511,89.931,4.5659e-05,4.52e-06,0.0,0 STARLINK-5929,1 55959U 23037AX  24153.18710790  .00000452  00000-0  45659-4 0  9990,2 55959  69.9993  94.5081 0002953 270.1511  89.9310 14.98334982 67973,6950.177,96.107,574.095,569.99,0.0
55959.0,STARLINK-5929,PAYLOAD,2024-06-01 06:05:34,14.98335725,0.0002918,69.9995,94.3397,270.1188,89.9637,5.3995e-05,5.51e-06,0.0,0 STARLINK-5929,1 55959U 23037AX  24153.25386711  .00000551  00000-0  53995-4 0  9992,2 55959  69.9995  94.3397 0002918 270.1188  89.9637 14.98335725 67646,6950.175,96.107,574.068,570.012,0.0
55959.0,STARLINK-5929,PAYLOAD,2024-06-01 20:30:47,14.98327973,0.0002917,69.9998,92.825,271.1656,88.9169,8.2628e-05,8.93e-06,0.0,0 STARLINK-5929,1 55959U 23037AX  24153.85471114  .00000893  00000-0  82628-4 0  9994,2 55959  69.9998  92.8250 0002917 271.1656  88.9169 14.98327973 68073,6950.199,96.107,574.092,570.037,0.0
55959.0,STARLINK-5929,PAYLOAD,2024-06-02 12:32:06,14.98364353,0.0002757,70.0014,91.1409,272.904,87.1803,-0.00058531,-7.076e-05,0.0,0 STARLINK-5929,1 55959U 23037AX  24154.52229933 -.00007076  00000-0 -58531-3 0  9996,2 55959  70.0014  91.1409 0002757 272.9040  87.1803 14.98364353 68171,6950.087,96.105,573.868,570.036,0.0
55959.0,STARLINK-5929,PAYLOAD,2024-06-02 18:56:39,14.9833989,0.0002063,70.0019,90.4677,276.4516,83.6408,-0.00013485,-1.702e-05,0.0,0 STARLINK-5929,1 55959U 23037AX  24154.78935178 -.00001702  00000-0 -13485-3 0  9998,2 55959  70.0019  90.4677 0002063 276.4516  83.6408 14.98339890 68217,6950.162,96.106,573.461,570.593,0.0
55959.0,STARLINK-5929,PAYLOAD,2024-06-03 12:34:08,14.98330619,0.0002683,70.0007,88.6168,273.2578,86.8274,7.2235e-05,7.69e-06,0.0,0 STARLINK-5929,1 55959U 23037AX  24155.52371120  .00000769  00000-0  72235-4 0  9991,2 55959  70.0007  88.6168 0002683 273.2578  86.8274 14.98330619 67988,6950.191,96.107,573.921,570.191,0.0
55959.0,STARLINK-5929,PAYLOAD,2024-06-04 02:59:20,14.98333828,0.000275,70.0002,87.1023,266.9293,93.1552,0.0001517,1.718e-05,0.0,0 STARLINK-5929,1 55959U 23037AX  24156.12454606  .00001718  00000-0  15170-3 0  9998,2 55959  70.0002  87.1023 0002750 266.9293  93.1552 14.98333828 68419,6950.181,96.107,573.957,570.135,0.0
55959.0,STARLINK-5929,PAYLOAD,2024-06-04 12:36:08,14.98340152,0.0002939,69.9998,86.0912,270.1207,89.9615,5.1548e-05,5.22e-06,0.0,0 STARLINK-5929,1 55959U 23037AX  24156.52510250  .00000522  00000-0  51548-4 0  9992,2 55959  69.9998  86.0912 0002939 270.1207  89.9615 14.98340152 68136,6950.161,96.106,574.069,569.984,0.0
55959.0,STARLINK-5929,PAYLOAD,2024-06-05 04:37:29,14.98331914,0.0002731,70.0005,84.4089,267.1325,92.9521,6.3828e-05,6.69e-06,0.0,0 STARLINK-5929,1 55959U 23037AX  24157.19270692  .00000669  00000-0  63828-4 0  9995,2 55959  70.0005  84.4089 0002731 267.1325  92.9521 14.98331914 68576,6950.187,96.107,573.95,570.154,0.0
55959.0,STARLINK-5929,PAYLOAD,2024-06-05 12:38:10,14.98330315,0.0002814,70.0006,83.566,270.7986,89.2851,1.8038e-05,1.22e-06,0.0,0 STARLINK-5929,1 55959U 23037AX  24157.52650839  .00000122  00000-0  18038-4 0  9994,2 55959  70.0006  83.5660 0002814 270.7986  89.2851 14.98330315 68284,6950.192,96.107,574.013,570.101,0.0
55959.0,STARLINK-5929,PAYLOAD,2024-06-06 04:39:31,14.9832822,0.0002643,70.0012,81.8821,264.5583,95.5275,-7.1062e-06,-1.78e-06,0.0,0 STARLINK-5929,1 55959U 23037AX  24158.19411159 -.00000178  00000-0 -71062-5 0  9998,2 55959  70.0012  81.8821 0002643 264.5583  95.5275 14.98328220 68726,6950.198,96.107,573.9,570.226,0.0
55959.0,STARLINK-5929,PAYLOAD,2024-06-06 12:40:11,14.98330491,0.0002579,70.0015,81.0408,269.0902,90.9961,-1.551e-07,-9.5e-07,0.0,0 STARLINK-5929,1 55959U 23037AX  24158.52791035 -.00000095  00000-0 -15510-6 0  9994,2 55959  70.0015  81.0408 0002579 269.0902  90.9961 14.98330491 68437,6950.191,96.107,573.849,570.264,0.0
55959.0,STARLINK-5929,PAYLOAD,2024-06-07 22:19:00,14.98328735,0.000285,70.0009,77.5064,267.7567,92.3266,0.0001246,1.394e-05,0.0,0 STARLINK-5929,1 55959U 23037AX  24159.92986895  .00001394  00000-0  12460-3 0  9998,2 55959  70.0009  77.5064 0002850 267.7567  92.3266 14.98328735 68647,6950.197,96.107,574.043,570.081,0.0
55959.0,STARLINK-5929,PAYLOAD,2024-06-08 04:43:32,14.98346457,0.0002454,70.0018,76.8349,271.8846,88.2032,-4.0886e-05,-5.81e-06,0.0,0 STARLINK-5929,1 55959U 23037AX  24160.19690332 -.00000581  00000-0 -40886-4 0  9990,2 55959  70.0018  76.8349 0002454 271.8846  88.2032 14.98346457 69020,6950.142,96.106,573.713,570.301,0.0
55959.0,STARLINK-5929,PAYLOAD,2024-06-08 11:08:04,14.98349987,0.000244,70.002,76.1606,268.3873,91.7007,-0.00028566,-3.501e-05,0.0,0 STARLINK-5929,1 55959U 23037AX  24160.46394347 -.00003501  00000-0 -28566-3 0  9992,2 55959  70.0020  76.1606 0002440 268.3873  91.7007 14.98349987 68726,6950.131,96.106,573.692,570.3,0.0
55959.0,STARLINK-5929,PAYLOAD,2024-06-08 22:21:01,14.98330508,0.0002012,70.0026,74.9828,275.4577,84.6353,4.0622e-05,3.92e-06,0.0,0 STARLINK-5929,1 55959U 23037AX  24160.93127269  .00000392  00000-0  40622-4 0  9992,2 55959  70.0026  74.9828 0002012 275.4577  84.6353 14.98330508 68790,6950.191,96.107,573.455,570.658,0.0
55959.0,STARLINK-5929,PAYLOAD,2024-06-09 04:45:33,14.9838624,0.0002175,70.0028,74.3088,290.0685,70.024,-0.00094741,-0.00011395,0.0,0 STARLINK-5929,1 55959U 23037AX  24161.19830792 -.00011395  00000-0 -94741-3 0  9990,2 55959  70.0028  74.3088 0002175 290.0685  70.0240 14.98386240 69178,6950.019,96.103,573.396,570.372,0.0
